NORAD_CAT_ID,OBJECT_NAME,OBJECT_TYPE,EPOCH,MEAN_MOTION,ECCENTRICITY,INCLINATION,RA_OF_ASC_NODE,ARG_OF_PERICENTER,MEAN_ANOMALY,BSTAR,MEAN_MOTION_DOT,MEAN_MOTION_DDOT,TLE_LINE0,TLE_LINE1,TLE_LINE2,SEMIMAJOR_AXIS,PERIOD,APOGEE,PERIGEE,DECAYED
52334.0,STARLINK-3880,PAYLOAD,2024-06-30 11:38:32,15.08838347,0.0001434,53.2181,99.8619,95.7655,264.35,4.6208e-06,-2.14e-06,0.0,0 STARLINK-3880,1 52334U 22045D   24182.48510402 -.00000214  00000-0  46208-5 0  9994,2 52334  53.2181  99.8619 0001434  95.7655 264.3500 15.08838347122451,6917.885,95.438,540.742,538.758,0.0
52334.0,STARLINK-3880,PAYLOAD,2024-07-01 11:29:19,15.08841636,0.0001222,53.2155,95.398,94.0092,266.104,0.00014223,1.977e-05,0.0,0 STARLINK-3880,1 52334U 22045D   24183.47870094  .00001977  00000-0  14223-3 0  9996,2 52334  53.2155  95.3980 0001222  94.0092 266.1040 15.08841636122607,6917.875,95.437,540.586,538.895,0.0
52334.0,STARLINK-3880,PAYLOAD,2024-07-01 22:37:02,15.08839104,0.0001775,53.2177,93.3177,95.6671,264.4524,0.00027974,4.167e-05,0.0,0 STARLINK-3880,1 52334U 22045D   24183.94238650  .00004167  00000-0  27974-3 0  9995,2 52334  53.2177  93.3177 0001775  95.6671 264.4524 15.08839104122672,6917.883,95.438,540.976,538.52,0.0
52334.0,STARLINK-3880,PAYLOAD,2024-07-02 00:12:25,15.08836511,0.0001067,53.2179,93.021,104.3325,255.7786,0.00022514,3.297e-05,0.0,0 STARLINK-3880,1 52334U 22045D   24184.00862668  .00003297  00000-0  22514-3 0  9993,2 52334  53.2179  93.0210 0001067 104.3325 255.7786 15.08836511122680,6917.891,95.438,540.494,539.018,0.0
52334.0,STARLINK-3880,PAYLOAD,2024-07-02 11:20:07,15.08841234,0.0001068,53.2145,90.9387,105.3348,254.7762,0.00018081,2.591e-05,0.0,0 STARLINK-3880,1 52334U 22045D   24184.47230406  .00002591  00000-0  18081-3 0  9993,2 52334  53.2145  90.9387 0001068 105.3348 254.7762 15.08841234122750,6917.877,95.437,540.48,539.003,0.0
52334.0,STARLINK-3880,PAYLOAD,2024-07-02 22:27:49,15.08841366,0.0001058,53.2135,88.8585,101.3424,258.7687,0.00016773,2.383e-05,0.0,0 STARLINK-3880,1 52334U 22045D   24184.93598541  .00002383  00000-0  16773-3 0  9996,2 52334  53.2135  88.8585 0001058 101.3424 258.7687 15.08841366122829,6917.876,95.437,540.473,539.009,0.0
52334.0,STARLINK-3880,PAYLOAD,2024-07-03 20:43:13,15.08841805,0.0001191,53.2157,84.6964,90.4479,269.6649,0.00018147,2.602e-05,0.0,0 STARLINK-3880,1 52334U 22045D   24185.86334679  .00002602  00000-0  18147-3 0  9990,2 52334  53.2157  84.6964 0001191  90.4479 269.6649 15.08841805122966,6917.875,95.437,540.564,538.916,0.0
52334.0,STARLINK-3880,PAYLOAD,2024-07-03 22:18:36,15.08842618,0.0001099,53.216,84.3992,92.3448,267.767,0.00019056,2.746e-05,0.0,0 STARLINK-3880,1 52334U 22045D   24185.92958608  .00002746  00000-0  19056-3 0  9990,2 52334  53.2160  84.3992 0001099  92.3448 267.7670 15.08842618122979,6917.872,95.437,540.498,538.977,0.0
52334.0,STARLINK-3880,PAYLOAD,2024-07-03 23:53:59,15.08844797,0.0001107,53.2158,84.1011,95.3905,264.7213,0.00021232,3.093e-05,0.0,0 STARLINK-3880,1 52334U 22045D   24185.99582473  .00003093  00000-0  21232-3 0  9995,2 52334  53.2158  84.1011 0001107  95.3905 264.7213 15.08844797122988,6917.866,95.437,540.497,538.965,0.0
52334.0,STARLINK-3880,PAYLOAD,2024-07-04 20:34:01,15.08828313,0.0001361,53.2159,80.2359,88.7827,271.3321,-2.2516e-05,-6.46e-06,0.0,0 STARLINK-3880,1 52334U 22045D   24186.85695940 -.00000646  00000-0 -22516-4 0  9995,2 52334  53.2159  80.2359 0001361  88.7827 271.3321 15.08828313123118,6917.916,95.438,540.723,538.84,0.0
52334.0,STARLINK-3880,PAYLOAD,2024-07-05 09:17:06,15.0882999,0.0001436,53.2178,77.8591,91.1792,268.9365,1.0247e-05,-1.25e-06,0.0,0 STARLINK-3880,1 52334U 22045D   24187.38688130 -.00000125  00000-0  10247-4 0  9996,2 52334  53.2178  77.8591 0001436  91.1792 268.9365 15.08829990123191,6917.911,95.438,540.769,538.783,0.0
52334.0,STARLINK-3880,PAYLOAD,2024-07-05 20:24:47,15.08851595,0.000135,53.2178,75.7753,84.2658,275.8488,0.00046277,7.087e-05,0.0,0 STARLINK-3880,1 52334U 22045D   24187.85055456  .00007087  00000-0  46277-3 0  9991,2 52334  53.2178  75.7753 0001350  84.2658 275.8488 15.08851595123264,6917.845,95.437,540.644,538.776,0.0
52334.0,STARLINK-3880,PAYLOAD,2024-07-05 22:00:11,15.08857851,0.000136,53.217,75.4785,83.254,276.8607,0.00080085,0.00012487,0.0,0 STARLINK-3880,1 52334U 22045D   24187.91679489  .00012487  00000-0  80085-3 0  9991,2 52334  53.2170  75.4785 0001360  83.2540 276.8607 15.08857851123274,6917.826,95.436,540.632,538.75,0.0
52334.0,STARLINK-3880,PAYLOAD,2024-07-06 02:46:20,15.08883788,0.0001368,53.2172,74.587,85.9894,274.1254,0.0018311,0.00029009,0.0,0 STARLINK-3880,1 52334U 22045D   24188.11551248  .00029009  00000-0  18311-2 0  9996,2 52334  53.2172  74.5870 0001368  85.9894 274.1254 15.08883788123301,6917.747,95.435,540.558,538.665,0.0
52334.0,STARLINK-3880,PAYLOAD,2024-07-06 09:07:53,15.08859983,0.0002024,53.2174,73.3944,78.8722,281.2498,0.00023809,3.505e-05,0.0,0 STARLINK-3880,1 52334U 22045D   24188.38047504  .00003505  00000-0  23809-3 0  9992,2 52334  53.2174  73.3944 0002024  78.8722 281.2498 15.08859983123346,6917.819,95.436,541.084,538.284,0.0
52334.0,STARLINK-3880,PAYLOAD,2024-07-06 20:15:35,15.08843216,0.0001187,53.217,71.3166,89.4556,270.6573,0.00085585,0.0001336,0.0,0 STARLINK-3880,1 52334U 22045D   24188.84415513  .00013360  00000-0  85585-3 0  9991,2 52334  53.2170  71.3166 0001187  89.4556 270.6573 15.08843216123414,6917.871,95.437,540.557,538.914,0.0
52334.0,STARLINK-3880,PAYLOAD,2024-07-06 21:50:58,15.08842309,0.0001193,53.2169,71.0187,96.0068,264.106,0.00078025,0.00012152,0.0,0 STARLINK-3880,1 52334U 22045D   24188.91039423  .00012152  00000-0  78025-3 0  9990,2 52334  53.2169  71.0187 0001193  96.0068 264.1060 15.08842309123423,6917.873,95.437,540.564,538.913,0.0
52334.0,STARLINK-3880,PAYLOAD,2024-07-07 08:58:40,15.08848365,0.0001149,53.2165,68.9372,97.6883,262.424,0.0010487,0.00016445,0.0,0 STARLINK-3880,1 52334U 22045D   24189.37407465  .00016445  00000-0  10487-2 0  9992,2 52334  53.2165  68.9372 0001149  97.6883 262.4240 15.08848365123499,6917.855,95.437,540.515,538.925,0.0
52334.0,STARLINK-3880,PAYLOAD,2024-07-07 20:06:21,15.08856876,0.0001161,53.2161,66.8558,97.3705,262.7419,0.00092243,0.0001443,0.0,0 STARLINK-3880,1 52334U 22045D   24189.83775160  .00014430  00000-0  92243-3 0  9996,2 52334  53.2161  66.8558 0001161  97.3705 262.7419 15.08856876123567,6917.829,95.436,540.497,538.891,0.0
52334.0,STARLINK-3880,PAYLOAD,2024-07-08 08:49:26,15.08853127,0.0001505,53.216,64.4756,82.7936,277.3228,0.00034387,5.191e-05,0.0,0 STARLINK-3880,1 52334U 22045D   24190.36766845  .00005191  00000-0  34387-3 0  9995,2 52334  53.2160  64.4756 0001505  82.7936 277.3228 15.08853127123641,6917.84,95.437,540.746,538.664,0.0
52334.0,STARLINK-3880,PAYLOAD,2024-07-08 19:57:08,15.08847789,0.0002181,53.2154,62.3942,84.4804,275.6437,0.00017089,2.433e-05,0.0,0 STARLINK-3880,1 52334U 22045D   24190.83135031  .00002433  00000-0  17089-3 0  9990,2 52334  53.2154  62.3942 0002181  84.4804 275.6437 15.08847789123710,6917.857,95.437,541.23,538.213,0.0
52334.0,STARLINK-3880,PAYLOAD,2024-07-09 08:40:13,15.08842159,0.0001296,53.2168,60.016,81.0918,279.0221,0.00010312,1.354e-05,0.0,0 STARLINK-3880,1 52334U 22045D   24191.36126935  .00001354  00000-0  10312-3 0  9995,2 52334  53.2168  60.0160 0001296  81.0918 279.0221 15.08842159123790,6917.874,95.437,540.635,538.842,0.0
52334.0,STARLINK-3880,PAYLOAD,2024-07-09 15:01:46,15.08836417,0.0001431,53.2141,58.829,82.886,277.2295,4.4541e-05,4.21e-06,0.0,0 STARLINK-3880,1 52334U 22045D   24191.62623202  .00000421  00000-0  44541-4 0  9999,2 52334  53.2141  58.8290 0001431  82.8860 277.2295 15.08836417123832,6917.891,95.438,540.746,538.766,0.0
52334.0,STARLINK-3880,PAYLOAD,2024-07-09 21:23:19,15.08832811,0.0001131,53.2152,57.6366,94.945,265.1671,-3.8686e-05,-9.03e-06,0.0,0 STARLINK-3880,1 52334U 22045D   24191.89119465 -.00000903  00000-0 -38686-4 0  9999,2 52334  53.2152  57.6366 0001131  94.9450 265.1671 15.08832811123873,6917.902,95.438,540.55,538.985,0.0
52334.0,STARLINK-3880,PAYLOAD,2024-07-10 10:06:24,15.08840539,0.0001146,53.2154,55.2564,106.4159,253.6959,0.0002887,4.31e-05,0.0,0 STARLINK-3880,1 52334U 22045D   24192.42111499  .00004310  00000-0  28870-3 0  9995,2 52334  53.2154  55.2564 0001146 106.4159 253.6959 15.08840539123956,6917.879,95.438,540.537,538.951,0.0
52334.0,STARLINK-3880,PAYLOAD,2024-07-10 21:14:06,15.08850056,0.0001247,53.2159,53.1768,88.674,271.4395,0.00049265,7.563e-05,0.0,0 STARLINK-3880,1 52334U 22045D   24192.88479380  .00007563  00000-0  49265-3 0  9995,2 52334  53.2159  53.1768 0001247  88.6740 271.4395 15.08850056124029,6917.85,95.437,540.577,538.852,0.0
52334.0,STARLINK-3880,PAYLOAD,2024-07-11 00:24:52,15.08856416,0.0001291,53.2157,52.5811,89.2077,270.9063,0.00074376,0.00011574,0.0,0 STARLINK-3880,1 52334U 22045D   24193.01727234  .00011574  00000-0  74376-3 0  9993,2 52334  53.2157  52.5811 0001291  89.2077 270.9063 15.08856416124042,6917.83,95.437,540.588,538.802,0.0
52334.0,STARLINK-3880,PAYLOAD,2024-07-11 21:04:53,15.08853245,0.0001499,53.2161,48.7159,83.803,276.3133,0.00042925,6.553e-05,0.0,0 STARLINK-3880,1 52334U 22045D   24193.87839240  .00006553  00000-0  42925-3 0  9994,2 52334  53.2161  48.7159 0001499  83.8030 276.3133 15.08853245124177,6917.84,95.437,540.742,538.668,0.0
52334.0,STARLINK-3880,PAYLOAD,2024-07-12 14:34:07,15.088578,0.0001173,53.2163,45.4428,76.4864,283.6259,0.00062828,9.73e-05,0.0,0 STARLINK-3880,1 52334U 22045D   24194.60702783  .00009730  00000-0  62828-3 0  9991,2 52334  53.2163  45.4428 0001173  76.4864 283.6259 15.08857800124287,6917.826,95.436,540.502,538.88,0.0
52334.0,STARLINK-3880,PAYLOAD,2024-07-12 20:55:39,15.08875881,0.0001024,53.2162,44.2531,75.2352,284.8754,0.0010811,0.00016976,0.0,0 STARLINK-3880,1 52334U 22045D   24194.87198080  .00016976  00000-0  10811-2 0  9993,2 52334  53.2162  44.2531 0001024  75.2352 284.8754 15.08875881124329,6917.771,95.435,540.344,538.927,0.0
